start=new Date('2023-03-10T00:00:00.000Z').valueOf();
sats=[{"DECAY_DATE":null,"ELEMENT_SET_NO":"999","MEAN_MOTION_DDOT":"0.0000000000000","NORAD_CAT_ID":"46577","OBJECT_ID":"2020-070AX","MEAN_ANOMALY":"273.7566","ARG_OF_PERICENTER":"86.3557","CENTER_NAME":"EARTH","LAUNCH_DATE":"2020-10-06","REV_AT_EPOCH":"13455","COUNTRY_CODE":"US","PERIOD":"95.591","MEAN_ELEMENT_THEORY":"SGP4","RCS_SIZE":"LARGE","RA_OF_ASC_NODE":"40.7850","MEAN_MOTION_DOT":"0.00027350","EPHEMERIS_TYPE":"0","MEAN_MOTION":"15.06419680","FILE":"3855951","OBJECT_NAME":"STARLINK-1682","APOAPSIS":"547.966","INCLINATION":"53.0575","TIME_SYSTEM":"UTC","CLASSIFICATION_TYPE":"U","PERIAPSIS":"546.341","EPOCH":"2023-03-09T21:43:25.277088","BSTAR":"0.00184690000000","ECCENTRICITY":"0.00011730","SITE":"AFETR","SEMIMAJOR_AXIS":"6925.288","TLE_LINE1":"1 46577U 20070AX  23068.90515367  .00027350  00000-0  18469-2 0  9990","OBJECT_TYPE":"PAYLOAD","REF_FRAME":"TEME","GP_ID":"227764273","TLE_LINE2":"2 46577  53.0575  40.7850 0001173  86.3557 273.7566 15.06419680134550"},{"MEAN_MOTION_DOT":"0.00006142","RA_OF_ASC_NODE":"25.9213","RCS_SIZE":"LARGE","MEAN_ELEMENT_THEORY":"SGP4","PERIOD":"95.592","COUNTRY_CODE":"US","LAUNCH_DATE":"2020-10-06","REV_AT_EPOCH":"13476","ARG_OF_PERICENTER":"104.1082","CENTER_NAME":"EARTH","MEAN_ANOMALY":"256.0051","OBJECT_ID":"2020-070AY","NORAD_CAT_ID":"46578","MEAN_MOTION_DDOT":"0.0000000000000","ELEMENT_SET_NO":"999","DECAY_DATE":null,"TLE_LINE2":"2 46578  53.0535  25.9213 0001303 104.1082 256.0051 15.06406618134765","GP_ID":"227764522","REF_FRAME":"TEME","OBJECT_TYPE":"PAYLOAD","TLE_LINE1":"1 46578U 20070AY  23068.88626477  .00006142  00000-0  43082-3 0  9999","SEMIMAJOR_AXIS":"6925.328","ECCENTRICITY":"0.00013030","SITE":"AFETR","BSTAR":"0.00043082000000","PERIAPSIS":"546.291","EPOCH":"2023-03-09T21:16:13.276128","TIME_SYSTEM":"UTC","CLASSIFICATION_TYPE":"U","INCLINATION":"53.0535","APOAPSIS":"548.096","OBJECT_NAME":"STARLINK-1683","FILE":"3855951","MEAN_MOTION":"15.06406618","EPHEMERIS_TYPE":"0"},{"GP_ID":"227765268","TLE_LINE2":"2 46579  53.0536  43.8256 0001250  97.4081 262.7050 15.06410693134454","REF_FRAME":"TEME","OBJECT_TYPE":"PAYLOAD","TLE_LINE1":"1 46579U 20070AZ  23068.22693867  .00007633  00000-0  53062-3 0  9990","SEMIMAJOR_AXIS":"6925.316","ECCENTRICITY":"0.00012500","SITE":"AFETR","BSTAR":"0.00053062000000","EPOCH":"2023-03-09T05:26:47.501088","PERIAPSIS":"546.315","TIME_SYSTEM":"UTC","CLASSIFICATION_TYPE":"U","INCLINATION":"53.0536","APOAPSIS":"548.046","OBJECT_NAME":"STARLINK-1705","MEAN_MOTION":"15.06410693","FILE":"3855951","EPHEMERIS_TYPE":"0","RA_OF_ASC_NODE":"43.8256","MEAN_MOTION_DOT":"0.00007633","RCS_SIZE":"LARGE","MEAN_ELEMENT_THEORY":"SGP4","PERIOD":"95.591","COUNTRY_CODE":"US","LAUNCH_DATE":"2020-10-06","REV_AT_EPOCH":"13445","ARG_OF_PERICENTER":"97.4081","CENTER_NAME":"EARTH","MEAN_ANOMALY":"262.7050","OBJECT_ID":"2020-070AZ","MEAN_MOTION_DDOT":"0.0000000000000","NORAD_CAT_ID":"46579","ELEMENT_SET_NO":"999","DECAY_DATE":null},{"RA_OF_ASC_NODE":"40.6506","MEAN_MOTION_DOT":"0.00032631","RCS_SIZE":"LARGE","PERIOD":"95.591","MEAN_ELEMENT_THEORY":"SGP4","COUNTRY_CODE":"US","REV_AT_EPOCH":"13456","LAUNCH_DATE":"2020-10-06","ARG_OF_PERICENTER":"109.2727","CENTER_NAME":"EARTH","MEAN_ANOMALY":"250.8437","OBJECT_ID":"2020-070BA","ELEMENT_SET_NO":"999","MEAN_MOTION_DDOT":"0.0000000000000","NORAD_CAT_ID":"46580","DECAY_DATE":null,"GP_ID":"227766022","TLE_LINE2":"2 46580  53.0531  40.6506 0001619 109.2727 250.8437 15.06423282134569","REF_FRAME":"TEME","OBJECT_TYPE":"PAYLOAD","TLE_LINE1":"1 46580U 20070BA  23068.93463932  .00032631  00000-0  21980-2 0  9997","SEMIMAJOR_AXIS":"6925.277","ECCENTRICITY":"0.00016190","SITE":"AFETR","BSTAR":"0.00219800000000","EPOCH":"2023-03-09T22:25:52.837248","PERIAPSIS":"546.021","TIME_SYSTEM":"UTC","CLASSIFICATION_TYPE":"U","INCLINATION":"53.0531","APOAPSIS":"548.263","OBJECT_NAME":"STARLINK-1708","EPHEMERIS_TYPE":"0","MEAN_MOTION":"15.06423282","FILE":"3855951"},{"TLE_LINE1":"1 46581U 20070BB  23068.30296273  .00012221  00000-0  83745-3 0  9992","SEMIMAJOR_AXIS":"6925.288","ECCENTRICITY":"0.00016030","SITE":"AFETR","OBJECT_TYPE":"PAYLOAD","TLE_LINE2":"2 46581  53.0554  38.4884 0001603  83.8539 276.2632 15.06419693134537","GP_ID":"227764774","REF_FRAME":"TEME","MEAN_MOTION":"15.06419693","FILE":"3855951","EPHEMERIS_TYPE":"0","APOAPSIS":"548.263","OBJECT_NAME":"STARLINK-1712","TIME_SYSTEM":"UTC","CLASSIFICATION_TYPE":"U","INCLINATION":"53.0554","BSTAR":"0.00083745000000","PERIAPSIS":"546.043","EPOCH":"2023-03-09T07:16:15.979872","COUNTRY_CODE":"US","LAUNCH_DATE":"2020-10-06","REV_AT_EPOCH":"13453","MEAN_ELEMENT_THEORY":"SGP4","PERIOD":"95.591","MEAN_MOTION_DOT":"0.00012221","RA_OF_ASC_NODE":"38.4884","RCS_SIZE":"LARGE","NORAD_CAT_ID":"46581","MEAN_MOTION_DDOT":"0.0000000000000","ELEMENT_SET_NO":"999","DECAY_DATE":null,"OBJECT_ID":"2020-070BB","ARG_OF_PERICENTER":"83.8539","CENTER_NAME":"EARTH","MEAN_ANOMALY":"276.2632"},{"APOAPSIS":"548.181","OBJECT_NAME":"STARLINK-1728","MEAN_MOTION":"15.06402784","FILE":"3855951","EPHEMERIS_TYPE":"0","BSTAR":"0.00014790000000","EPOCH":"2023-03-09T21:14:53.283552","PERIAPSIS":"546.229","TIME_SYSTEM":"UTC","CLASSIFICATION_TYPE":"U","INCLINATION":"53.0540","TLE_LINE1":"1 46582U 20070BC  23068.88533893  .00001922  00000-0  14790-3 0  9998","SEMIMAJOR_AXIS":"6925.340","ECCENTRICITY":"0.00014100","SITE":"AFETR","GP_ID":"227765023","TLE_LINE2":"2 46582  53.0540  35.8739 0001410  96.7538 263.3612 15.06402784134629","REF_FRAME":"TEME","OBJECT_TYPE":"PAYLOAD","NORAD_CAT_ID":"46582","MEAN_MOTION_DDOT":"0.0000000000000","ELEMENT_SET_NO":"999","DECAY_DATE":null,"ARG_OF_PERICENTER":"96.7538","CENTER_NAME":"EARTH","MEAN_ANOMALY":"263.3612","OBJECT_ID":"2020-070BC","MEAN_ELEMENT_THEORY":"SGP4","PERIOD":"95.592","COUNTRY_CODE":"US","REV_AT_EPOCH":"13462","LAUNCH_DATE":"2020-10-06","RA_OF_ASC_NODE":"35.8739","MEAN_MOTION_DOT":"0.00001922","RCS_SIZE":"LARGE"},{"MEAN_ANOMALY":"272.4325","ARG_OF_PERICENTER":"87.7014","CENTER_NAME":"EARTH","OBJECT_ID":"2020-070BD","DECAY_DATE":null,"NORAD_CAT_ID":"46583","MEAN_MOTION_DDOT":"0.0000000000000","ELEMENT_SET_NO":"999","RCS_SIZE":"LARGE","RA_OF_ASC_NODE":"55.6500","MEAN_MOTION_DOT":"0.00017657","MEAN_ELEMENT_THEORY":"SGP4","PERIOD":"95.591","LAUNCH_DATE":"2020-10-06","REV_AT_EPOCH":"13434","COUNTRY_CODE":"US","EPOCH":"2023-03-09T22:26:33.039168","PERIAPSIS":"545.037","BSTAR":"0.00120060000000","INCLINATION":"53.0530","CLASSIFICATION_TYPE":"U","TIME_SYSTEM":"UTC","OBJECT_NAME":"STARLINK-1729","APOAPSIS":"549.265","MEAN_MOTION":"15.06420430","FILE":"3855951","EPHEMERIS_TYPE":"0","REF_FRAME":"TEME","TLE_LINE2":"2 46583  53.0530  55.6500 0003053  87.7014 272.4325 15.06420430134348","GP_ID":"227765768","OBJECT_TYPE":"PAYLOAD","ECCENTRICITY":"0.00030530","SITE":"AFETR","TLE_LINE1":"1 46583U 20070BD  23068.93510462  .00017657  00000-0  12006-2 0  9991","SEMIMAJOR_AXIS":"6925.286"},{"RCS_SIZE":"LARGE","MEAN_MOTION_DOT":"0.00043811","RA_OF_ASC_NODE":"38.8366","LAUNCH_DATE":"2020-10-06","REV_AT_EPOCH":"13452","COUNTRY_CODE":"US","MEAN_ELEMENT_THEORY":"SGP4","PERIOD":"95.590","OBJECT_ID":"2020-070BE","MEAN_ANOMALY":"238.3692","CENTER_NAME":"EARTH","ARG_OF_PERICENTER":"121.7423","DECAY_DATE":null,"MEAN_MOTION_DDOT":"0.0000000000000","NORAD_CAT_ID":"46584","ELEMENT_SET_NO":"999","OBJECT_TYPE":"PAYLOAD","REF_FRAME":"TEME","GP_ID":"227765523","TLE_LINE2":"2 46584  53.0522  38.8366 0001295 121.7423 238.3692 15.06433541134527","SITE":"AFETR","ECCENTRICITY":"0.00012950","TLE_LINE1":"1 46584U 20070BE  23068.22555565  .00043811  00000-0  29392-2 0  9994","SEMIMAJOR_AXIS":"6925.246","INCLINATION":"53.0522","CLASSIFICATION_TYPE":"U","TIME_SYSTEM":"UTC","PERIAPSIS":"546.214","EPOCH":"2023-03-09T05:24:48.008160","BSTAR":"0.00293920000000","MEAN_MOTION":"15.06433541","FILE":"3855951","EPHEMERIS_TYPE":"0","OBJECT_NAME":"STARLINK-1732","APOAPSIS":"548.008"},{"BSTAR":"0.00294920000000","EPOCH":"2023-03-09T15:23:12.764544","PERIAPSIS":"546.422","TIME_SYSTEM":"UTC","CLASSIFICATION_TYPE":"U","INCLINATION":"53.0532","APOAPSIS":"547.785","OBJECT_NAME":"STARLINK-1736","MEAN_MOTION":"15.06436009","FILE":"3855951","EPHEMERIS_TYPE":"0","TLE_LINE2":"2 46585  53.0532  36.9636 0000984  99.4444 260.6656 15.06436009134582","GP_ID":"227764274","REF_FRAME":"TEME","OBJECT_TYPE":"PAYLOAD","TLE_LINE1":"1 46585U 20070BF  23068.64111996  .00043964  00000-0  29492-2 0  9997","SEMIMAJOR_AXIS":"6925.238","ECCENTRICITY":"0.00009840","SITE":"AFETR","CENTER_NAME":"EARTH","ARG_OF_PERICENTER":"99.4444","MEAN_ANOMALY":"260.6656","OBJECT_ID":"2020-070BF","NORAD_CAT_ID":"46585","MEAN_MOTION_DDOT":"0.0000000000000","ELEMENT_SET_NO":"999","DECAY_DATE":null,"MEAN_MOTION_DOT":"0.00043964","RA_OF_ASC_NODE":"36.9636","RCS_SIZE":"LARGE","MEAN_ELEMENT_THEORY":"SGP4","PERIOD":"95.590","COUNTRY_CODE":"US","LAUNCH_DATE":"2020-10-06","REV_AT_EPOCH":"13458"},{"MEAN_MOTION_DOT":"0.00041132","RA_OF_ASC_NODE":"35.8210","RCS_SIZE":"LARGE","MEAN_ELEMENT_THEORY":"SGP4","PERIOD":"95.590","COUNTRY_CODE":"US","LAUNCH_DATE":"2020-10-06","REV_AT_EPOCH":"13462","ARG_OF_PERICENTER":"126.6186","CENTER_NAME":"EARTH","MEAN_ANOMALY":"233.4978","OBJECT_ID":"2020-070BG","NORAD_CAT_ID":"46586","MEAN_MOTION_DDOT":"0.0000000000000","ELEMENT_SET_NO":"999","DECAY_DATE":null,"TLE_LINE2":"2 46586  53.0570  35.8210 0001899 126.6186 233.4978 15.06431507134621","GP_ID":"227764523","REF_FRAME":"TEME","OBJECT_TYPE":"PAYLOAD","TLE_LINE1":"1 46586U 20070BG  23068.89639810  .00041132  00000-0  27618-2 0  9998","SEMIMAJOR_AXIS":"6925.252","ECCENTRICITY":"0.00018990","SITE":"AFETR","BSTAR":"0.00276180000000","PERIAPSIS":"545.802","EPOCH":"2023-03-09T21:30:48.795840","CLASSIFICATION_TYPE":"U","TIME_SYSTEM":"UTC","INCLINATION":"53.0570","APOAPSIS":"548.432","OBJECT_NAME":"STARLINK-1737","FILE":"3855951","MEAN_MOTION":"15.06431507","EPHEMERIS_TYPE":"0"}];
